KUIPER-00226            
1 67785U 26030X   26052.16668981  .00068212  00000+0  21712-2 0  9997
2 67785  51.8812 298.9793 0019679  21.8765 261.3336 15.31764518  1307
KUIPER-00259            
1 67786U 26030Y   26052.16668981  .00060222  00000+0  17820-2 0  9996
2 67786  51.8807 298.8368 0007829   1.7225 351.9790 15.34297525  2517
KUIPER-00260            
1 67787U 26030Z   26052.16668981  .00063765  00000+0  18041-2 0  9998
2 67787  51.8800 298.7503 0001143  74.9093 321.4852 15.35706099  2387
KUIPER-00262            
1 67788U 26030AA  26052.16668981  .00065196  00000+0  18308-2 0  9995
2 67788  51.8812 298.7382 0001765 110.7106 292.0929 15.35928619  1303
KUIPER-00266            
1 67789U 26030AB  26052.16668981  .00053807  00000+0  17379-2 0  9999
2 67789  51.8810 298.9969 0022372  23.5997 250.0234 15.31348962  1307
KUIPER-00268            
1 67790U 26030AC  26052.16668981  .00062420  00000+0  17902-2 0  9994
2 67790  51.8844 298.7747 0001824  16.0195   9.8282 15.35289682  1304
KUIPER-00270            
1 67791U 26030AD  26052.16668981  .00059202  00000+0  17740-2 0  9999
2 67791  51.8806 298.8600 0009876   7.2920 334.8437 15.33889087  1301
KUIPER-00274            
1 67792U 26030AE  26052.16668981  .00080646  00000+0  25179-2 0  9991
2 67792  51.8822 298.9525 0017339  19.1796 279.0305 15.32344619  1538
KUIPER-00275            
1 67793U 26030AF  26052.16668981  .00059942  00000+0  17810-2 0  9990
2 67793  51.8840 298.8490 0008075   5.6539 344.2531 15.34168384  1307
KUIPER-00276            
1 67794U 26030AG  26052.16668981  .00055419  00000+0  17676-2 0  9996
2 67794  51.8816 298.9647 0019516  15.9526 275.7758 15.31796427  2254
KUIPER-00279            
1 67795U 26030AH  26052.16668981  .00061125  00000+0  17924-2 0  9994
2 67795  51.8797 298.8182 0005999   3.3057 359.0693 15.34588021  1307
CREW DRAGON 12          
1 67796U 26031A   26051.79705790  .00009624  00000+0  18780-3 0  9992
2 67796  51.6323 155.8543 0008571 116.6604 243.5263 15.48167199553686
