CCSDS_OMM_VERS = 2.0
CREATION_DATE  = 
ORIGINATOR     = 

OBJECT_NAME    = KUIPER-00226
OBJECT_ID      = 2026-030X
CENTER_NAME    = EARTH
REF_FRAME      = TEME
TIME_SYSTEM    = UTC
MEAN_ELEMENT_THEORY = SGP/SGP4

EPOCH          = 2026-02-21T04:00:01.999584
MEAN_MOTION    = 15.31764518
ECCENTRICITY   = .0019679
INCLINATION    = 51.8812
RA_OF_ASC_NODE = 298.9793
ARG_OF_PERICENTER = 21.8765
MEAN_ANOMALY   = 261.3336

EPHEMERIS_TYPE = 0
CLASSIFICATION_TYPE = U
NORAD_CAT_ID   = 67785
ELEMENT_SET_NO = 999
REV_AT_EPOCH   = 130
BSTAR          = .21712E-2
MEAN_MOTION_DOT = .68212E-3
MEAN_MOTION_DDOT = 0

CCSDS_OMM_VERS = 2.0
CREATION_DATE  = 
ORIGINATOR     = 

OBJECT_NAME    = KUIPER-00259
OBJECT_ID      = 2026-030Y
CENTER_NAME    = EARTH
REF_FRAME      = TEME
TIME_SYSTEM    = UTC
MEAN_ELEMENT_THEORY = SGP/SGP4

EPOCH          = 2026-02-21T04:00:01.999584
MEAN_MOTION    = 15.34297525
ECCENTRICITY   = .0007829
INCLINATION    = 51.8807
RA_OF_ASC_NODE = 298.8368
ARG_OF_PERICENTER = 1.7225
MEAN_ANOMALY   = 351.9790

EPHEMERIS_TYPE = 0
CLASSIFICATION_TYPE = U
NORAD_CAT_ID   = 67786
ELEMENT_SET_NO = 999
REV_AT_EPOCH   = 251
BSTAR          = .1782E-2
MEAN_MOTION_DOT = .60222E-3
MEAN_MOTION_DDOT = 0

CCSDS_OMM_VERS = 2.0
CREATION_DATE  = 
ORIGINATOR     = 

OBJECT_NAME    = KUIPER-00260
OBJECT_ID      = 2026-030Z
CENTER_NAME    = EARTH
REF_FRAME      = TEME
TIME_SYSTEM    = UTC
MEAN_ELEMENT_THEORY = SGP/SGP4

EPOCH          = 2026-02-21T04:00:01.999584
MEAN_MOTION    = 15.35706099
ECCENTRICITY   = .0001143
INCLINATION    = 51.8800
RA_OF_ASC_NODE = 298.7503
ARG_OF_PERICENTER = 74.9093
MEAN_ANOMALY   = 321.4852

EPHEMERIS_TYPE = 0
CLASSIFICATION_TYPE = U
NORAD_CAT_ID   = 67787
ELEMENT_SET_NO = 999
REV_AT_EPOCH   = 238
BSTAR          = .18041E-2
MEAN_MOTION_DOT = .63765E-3
MEAN_MOTION_DDOT = 0

CCSDS_OMM_VERS = 2.0
CREATION_DATE  = 
ORIGINATOR     = 

OBJECT_NAME    = KUIPER-00262
OBJECT_ID      = 2026-030AA
CENTER_NAME    = EARTH
REF_FRAME      = TEME
TIME_SYSTEM    = UTC
MEAN_ELEMENT_THEORY = SGP/SGP4

EPOCH          = 2026-02-21T04:00:01.999584
MEAN_MOTION    = 15.35928619
ECCENTRICITY   = .0001765
INCLINATION    = 51.8812
RA_OF_ASC_NODE = 298.7382
ARG_OF_PERICENTER = 110.7106
MEAN_ANOMALY   = 292.0929

EPHEMERIS_TYPE = 0
CLASSIFICATION_TYPE = U
NORAD_CAT_ID   = 67788
ELEMENT_SET_NO = 999
REV_AT_EPOCH   = 130
BSTAR          = .18308E-2
MEAN_MOTION_DOT = .65196E-3
MEAN_MOTION_DDOT = 0

CCSDS_OMM_VERS = 2.0
CREATION_DATE  = 
ORIGINATOR     = 

OBJECT_NAME    = KUIPER-00266
OBJECT_ID      = 2026-030AB
CENTER_NAME    = EARTH
REF_FRAME      = TEME
TIME_SYSTEM    = UTC
MEAN_ELEMENT_THEORY = SGP/SGP4

EPOCH          = 2026-02-21T04:00:01.999584
MEAN_MOTION    = 15.31348962
ECCENTRICITY   = .0022372
INCLINATION    = 51.8810
RA_OF_ASC_NODE = 298.9969
ARG_OF_PERICENTER = 23.5997
MEAN_ANOMALY   = 250.0234

EPHEMERIS_TYPE = 0
CLASSIFICATION_TYPE = U
NORAD_CAT_ID   = 67789
ELEMENT_SET_NO = 999
REV_AT_EPOCH   = 130
BSTAR          = .17379E-2
MEAN_MOTION_DOT = .53807E-3
MEAN_MOTION_DDOT = 0

CCSDS_OMM_VERS = 2.0
CREATION_DATE  = 
ORIGINATOR     = 

OBJECT_NAME    = KUIPER-00268
OBJECT_ID      = 2026-030AC
CENTER_NAME    = EARTH
REF_FRAME      = TEME
TIME_SYSTEM    = UTC
MEAN_ELEMENT_THEORY = SGP/SGP4

EPOCH          = 2026-02-21T04:00:01.999584
MEAN_MOTION    = 15.35289682
ECCENTRICITY   = .0001824
INCLINATION    = 51.8844
RA_OF_ASC_NODE = 298.7747
ARG_OF_PERICENTER = 16.0195
MEAN_ANOMALY   = 9.8282

EPHEMERIS_TYPE = 0
CLASSIFICATION_TYPE = U
NORAD_CAT_ID   = 67790
ELEMENT_SET_NO = 999
REV_AT_EPOCH   = 130
BSTAR          = .17902E-2
MEAN_MOTION_DOT = .6242E-3
MEAN_MOTION_DDOT = 0

CCSDS_OMM_VERS = 2.0
CREATION_DATE  = 
ORIGINATOR     = 

OBJECT_NAME    = KUIPER-00270
OBJECT_ID      = 2026-030AD
CENTER_NAME    = EARTH
REF_FRAME      = TEME
TIME_SYSTEM    = UTC
MEAN_ELEMENT_THEORY = SGP/SGP4

EPOCH          = 2026-02-21T04:00:01.999584
MEAN_MOTION    = 15.33889087
ECCENTRICITY   = .0009876
INCLINATION    = 51.8806
RA_OF_ASC_NODE = 298.8600
ARG_OF_PERICENTER = 7.2920
MEAN_ANOMALY   = 334.8437

EPHEMERIS_TYPE = 0
CLASSIFICATION_TYPE = U
NORAD_CAT_ID   = 67791
ELEMENT_SET_NO = 999
REV_AT_EPOCH   = 130
BSTAR          = .1774E-2
MEAN_MOTION_DOT = .59202E-3
MEAN_MOTION_DDOT = 0

CCSDS_OMM_VERS = 2.0
CREATION_DATE  = 
ORIGINATOR     = 

OBJECT_NAME    = KUIPER-00274
OBJECT_ID      = 2026-030AE
CENTER_NAME    = EARTH
REF_FRAME      = TEME
TIME_SYSTEM    = UTC
MEAN_ELEMENT_THEORY = SGP/SGP4

EPOCH          = 2026-02-21T04:00:01.999584
MEAN_MOTION    = 15.32344619
ECCENTRICITY   = .0017339
INCLINATION    = 51.8822
RA_OF_ASC_NODE = 298.9525
ARG_OF_PERICENTER = 19.1796
MEAN_ANOMALY   = 279.0305

EPHEMERIS_TYPE = 0
CLASSIFICATION_TYPE = U
NORAD_CAT_ID   = 67792
ELEMENT_SET_NO = 999
REV_AT_EPOCH   = 153
BSTAR          = .25179E-2
MEAN_MOTION_DOT = .80646E-3
MEAN_MOTION_DDOT = 0

CCSDS_OMM_VERS = 2.0
CREATION_DATE  = 
ORIGINATOR     = 

OBJECT_NAME    = KUIPER-00275
OBJECT_ID      = 2026-030AF
CENTER_NAME    = EARTH
REF_FRAME      = TEME
TIME_SYSTEM    = UTC
MEAN_ELEMENT_THEORY = SGP/SGP4

EPOCH          = 2026-02-21T04:00:01.999584
MEAN_MOTION    = 15.34168384
ECCENTRICITY   = .0008075
INCLINATION    = 51.8840
RA_OF_ASC_NODE = 298.8490
ARG_OF_PERICENTER = 5.6539
MEAN_ANOMALY   = 344.2531

EPHEMERIS_TYPE = 0
CLASSIFICATION_TYPE = U
NORAD_CAT_ID   = 67793
ELEMENT_SET_NO = 999
REV_AT_EPOCH   = 130
BSTAR          = .1781E-2
MEAN_MOTION_DOT = .59942E-3
MEAN_MOTION_DDOT = 0

CCSDS_OMM_VERS = 2.0
CREATION_DATE  = 
ORIGINATOR     = 

OBJECT_NAME    = KUIPER-00276
OBJECT_ID      = 2026-030AG
CENTER_NAME    = EARTH
REF_FRAME      = TEME
TIME_SYSTEM    = UTC
MEAN_ELEMENT_THEORY = SGP/SGP4

EPOCH          = 2026-02-21T04:00:01.999584
MEAN_MOTION    = 15.31796427
ECCENTRICITY   = .0019516
INCLINATION    = 51.8816
RA_OF_ASC_NODE = 298.9647
ARG_OF_PERICENTER = 15.9526
MEAN_ANOMALY   = 275.7758

EPHEMERIS_TYPE = 0
CLASSIFICATION_TYPE = U
NORAD_CAT_ID   = 67794
ELEMENT_SET_NO = 999
REV_AT_EPOCH   = 225
BSTAR          = .17676E-2
MEAN_MOTION_DOT = .55419E-3
MEAN_MOTION_DDOT = 0

CCSDS_OMM_VERS = 2.0
CREATION_DATE  = 
ORIGINATOR     = 

OBJECT_NAME    = KUIPER-00279
OBJECT_ID      = 2026-030AH
CENTER_NAME    = EARTH
REF_FRAME      = TEME
TIME_SYSTEM    = UTC
MEAN_ELEMENT_THEORY = SGP/SGP4

EPOCH          = 2026-02-21T04:00:01.999584
MEAN_MOTION    = 15.34588021
ECCENTRICITY   = .0005999
INCLINATION    = 51.8797
RA_OF_ASC_NODE = 298.8182
ARG_OF_PERICENTER = 3.3057
MEAN_ANOMALY   = 359.0693

EPHEMERIS_TYPE = 0
CLASSIFICATION_TYPE = U
NORAD_CAT_ID   = 67795
ELEMENT_SET_NO = 999
REV_AT_EPOCH   = 130
BSTAR          = .17924E-2
MEAN_MOTION_DOT = .61125E-3
MEAN_MOTION_DDOT = 0

CCSDS_OMM_VERS = 2.0
CREATION_DATE  = 
ORIGINATOR     = 

OBJECT_NAME    = CREW DRAGON 12
OBJECT_ID      = 2026-031A
CENTER_NAME    = EARTH
REF_FRAME      = TEME
TIME_SYSTEM    = UTC
MEAN_ELEMENT_THEORY = SGP/SGP4

EPOCH          = 2026-02-20T19:07:45.802560
MEAN_MOTION    = 15.48167199
ECCENTRICITY   = .00085713
INCLINATION    = 51.6323
RA_OF_ASC_NODE = 155.8543
ARG_OF_PERICENTER = 116.6604
MEAN_ANOMALY   = 243.5263

EPHEMERIS_TYPE = 0
CLASSIFICATION_TYPE = U
NORAD_CAT_ID   = 67796
ELEMENT_SET_NO = 999
REV_AT_EPOCH   = 55368
BSTAR          = .18779765E-3
MEAN_MOTION_DOT = .9624E-4
MEAN_MOTION_DDOT = 0

